{
  "type": "FeatureCollection",
  "features": [
    {
      "type": "Feature",
      "properties": {
        "norad_id": 66447,
        "name": "STARLINK-34851",
        "group": "last-30-days",
        "lat": -42.82733258391589,
        "lon": -23.264713087387666,
        "alt_km": 416.2575040925167,
        "timestamp": "2025-12-10T09:57:43.488041+00:00",
        "meta_object_name": "STARLINK-34851",
        "meta_object_id": "2025-259AB",
        "meta_epoch": "2025-12-09T12:41:24.098496",
        "meta_mean_motion": 15.5066298,
        "meta_eccentricity": 0.00015853,
        "meta_inclination": 43.0003,
        "meta_ra_of_asc_node": 66.0078,
        "meta_arg_of_pericenter": 255.9268,
        "meta_mean_anomaly": 104.1416,
        "meta_ephemeris_type": 0,
        "meta_classification_type": "U",
        "meta_norad_cat_id": 66447,
        "meta_element_set_no": 999,
        "meta_rev_at_epoch": 556,
        "meta_bstar": 0.0028157194,
        "meta_mean_motion_dot": 0.00168962,
        "meta_mean_motion_ddot": 0,
        "tle_line1": "1 66447U 25259AB  25343.52875114  .00168962  00000+0  28157-2 0  9996",
        "tle_line2": "2 66447  43.0003  66.0078 0001585 255.9268 104.1416 15.50662980  5567"
      },
      "geometry": {
        "type": "Point",
        "coordinates": [
          -23.264713087387666,
          -42.82733258391589
        ]
      }
    },
    {
      "type": "Feature",
      "properties": {
        "norad_id": 66448,
        "name": "STARLINK-35355",
        "group": "last-30-days",
        "lat": -42.707690156969285,
        "lon": -21.295602296008898,
        "alt_km": 416.83884348079664,
        "timestamp": "2025-12-10T09:57:43.488054+00:00",
        "meta_object_name": "STARLINK-35355",
        "meta_object_id": "2025-259AC",
        "meta_epoch": "2025-12-09T14:13:40.010016",
        "meta_mean_motion": 15.50575554,
        "meta_eccentricity": 0.0001458,
        "meta_inclination": 42.9997,
        "meta_ra_of_asc_node": 65.6281,
        "meta_arg_of_pericenter": 275.8092,
        "meta_mean_anomaly": 84.2602,
        "meta_ephemeris_type": 0,
        "meta_classification_type": "U",
        "meta_norad_cat_id": 66448,
        "meta_element_set_no": 999,
        "meta_rev_at_epoch": 568,
        "meta_bstar": 0.0020891,
        "meta_mean_motion_dot": 0.00124162,
        "meta_mean_motion_ddot": 0,
        "tle_line1": "1 66448U 25259AC  25343.59282419  .00124162  00000+0  20891-2 0  9995",
        "tle_line2": "2 66448  42.9997  65.6281 0001458 275.8092  84.2602 15.50575554  5682"
      },
      "geometry": {
        "type": "Point",
        "coordinates": [
          -21.295602296008898,
          -42.707690156969285
        ]
      }
    },
    {
      "type": "Feature",
      "properties": {
        "norad_id": 66449,
        "name": "STARLINK-34720",
        "group": "last-30-days",
        "lat": -42.5030904464076,
        "lon": -18.755261861608304,
        "alt_km": 416.92142592817527,
        "timestamp": "2025-12-10T09:57:43.488065+00:00",
        "meta_object_name": "STARLINK-34720",
        "meta_object_id": "2025-259AD",
        "meta_epoch": "2025-12-09T14:13:10.265952",
        "meta_mean_motion": 15.5058504,
        "meta_eccentricity": 0.0001466,
        "meta_inclination": 42.9996,
        "meta_ra_of_asc_node": 65.6255,
        "meta_arg_of_pericenter": 272.035,
        "meta_mean_anomaly": 88.0342,
        "meta_ephemeris_type": 0,
        "meta_classification_type": "U",
        "meta_norad_cat_id": 66449,
        "meta_element_set_no": 999,
        "meta_rev_at_epoch": 557,
        "meta_bstar": 0.0016251,
        "meta_mean_motion_dot": 0.00096197,
        "meta_mean_motion_ddot": 0,
        "tle_line1": "1 66449U 25259AD  25343.59247993  .00096197  00000+0  16251-2 0  9995",
        "tle_line2": "2 66449  42.9996  65.6255 0001466 272.0350  88.0342 15.50585040  5570"
      },
      "geometry": {
        "type": "Point",
        "coordinates": [
          -18.755261861608304,
          -42.5030904464076
        ]
      }
    },
    {
      "type": "Feature",
      "properties": {
        "norad_id": 66450,
        "name": "STARLINK-35334",
        "group": "last-30-days",
        "lat": -42.18597221290288,
        "lon": -15.731470416909366,
        "alt_km": 415.9567697043931,
        "timestamp": "2025-12-10T09:57:43.488075+00:00",
        "meta_object_name": "STARLINK-35334",
        "meta_object_id": "2025-259AE",
        "meta_epoch": "2025-12-09T14:12:39.531744",
        "meta_mean_motion": 15.50689398,
        "meta_eccentricity": 0.0002489,
        "meta_inclination": 43.0018,
        "meta_ra_of_asc_node": 65.6216,
        "meta_arg_of_pericenter": 270.8736,
        "meta_mean_anomaly": 89.1839,
        "meta_ephemeris_type": 0,
        "meta_classification_type": "U",
        "meta_norad_cat_id": 66450,
        "meta_element_set_no": 999,
        "meta_rev_at_epoch": 568,
        "meta_bstar": 0.0014656,
        "meta_mean_motion_dot": 0.00086945,
        "meta_mean_motion_ddot": 0,
        "tle_line1": "1 66450U 25259AE  25343.59212421  .00086945  00000+0  14656-2 0  9992",
        "tle_line2": "2 66450  43.0018  65.6216 0002489 270.8736  89.1839 15.50689398  5682"
      },
      "geometry": {
        "type": "Point",
        "coordinates": [
          -15.731470416909366,
          -42.18597221290288
        ]
      }
    },
    {
      "type": "Feature",
      "properties": {
        "norad_id": 66454,
        "name": "VIASAT-3 F2",
        "group": "last-30-days",
        "lat": 3.522274848935186,
        "lon": 72.94998788705185,
        "alt_km": 13805.005560060043,
        "timestamp": "2025-12-10T09:57:43.488089+00:00",
        "meta_object_name": "VIASAT-3 F2",
        "meta_object_id": "2025-261A",
        "meta_epoch": "2025-12-06T17:04:58.090944",
        "meta_mean_motion": 2.24196708,
        "meta_eccentricity": 0.23030921,
        "meta_inclination": 5.516,
        "meta_ra_of_asc_node": 292.8248,
        "meta_arg_of_pericenter": 186.81,
        "meta_mean_anomaly": 221.0538,
        "meta_ephemeris_type": 0,
        "meta_classification_type": "U",
        "meta_norad_cat_id": 66454,
        "meta_element_set_no": 999,
        "meta_rev_at_epoch": 51,
        "meta_bstar": 0,
        "meta_mean_motion_dot": -7.3e-07,
        "meta_mean_motion_ddot": 0,
        "tle_line1": "1 66454U 25261A   25340.71178346 -.00000073  00000+0  00000+0 0  9991",
        "tle_line2": "2 66454   5.5160 292.8248 2303092 186.8100 221.0538  2.24196708   518"
      },
      "geometry": {
        "type": "Point",
        "coordinates": [
          72.94998788705185,
          3.522274848935186
        ]
      }
    },
    {
      "type": "Feature",
      "properties": {
        "norad_id": 66455,
        "name": "ATLAS 5 CENTAUR R/B",
        "group": "last-30-days",
        "lat": -5.325291798826025,
        "lon": 171.67295506824468,
        "alt_km": 13891.603104831367,
        "timestamp": "2025-12-10T09:57:43.488102+00:00",
        "meta_object_name": "ATLAS 5 CENTAUR R/B",
        "meta_object_id": "2025-261B",
        "meta_epoch": "2025-12-09T12:36:12.496896",
        "meta_mean_motion": 2.28259633,
        "meta_eccentricity": 0.23295155,
        "meta_inclination": 6.1498,
        "meta_ra_of_asc_node": 291.938,
        "meta_arg_of_pericenter": 185.838,
        "meta_mean_anomaly": 23.1887,
        "meta_ephemeris_type": 0,
        "meta_classification_type": "U",
        "meta_norad_cat_id": 66455,
        "meta_element_set_no": 999,
        "meta_rev_at_epoch": 57,
        "meta_bstar": 0,
        "meta_mean_motion_dot": -8e-07,
        "meta_mean_motion_ddot": 0,
        "tle_line1": "1 66455U 25261B   25343.52514464 -.00000080  00000+0  00000+0 0  9997",
        "tle_line2": "2 66455   6.1498 291.9380 2329515 185.8380  23.1887  2.28259633   579"
      },
      "geometry": {
        "type": "Point",
        "coordinates": [
          171.67295506824468,
          -5.325291798826025
        ]
      }
    },
    {
      "type": "Feature",
      "properties": {
        "norad_id": 66456,
        "name": "STARLINK-35643",
        "group": "last-30-days",
        "lat": -14.927092255418641,
        "lon": -78.37140007735131,
        "alt_km": 445.4500278751675,
        "timestamp": "2025-12-10T09:57:43.488114+00:00",
        "meta_object_name": "STARLINK-35643",
        "meta_object_id": "2025-262A",
        "meta_epoch": "2025-12-10T04:00:01.998720",
        "meta_mean_motion": 15.40622914,
        "meta_eccentricity": 0.0001349,
        "meta_inclination": 43.0001,
        "meta_ra_of_asc_node": 86.4368,
        "meta_arg_of_pericenter": 279.5216,
        "meta_mean_anomaly": 343.2865,
        "meta_ephemeris_type": 0,
        "meta_classification_type": "U",
        "meta_norad_cat_id": 66456,
        "meta_element_set_no": 999,
        "meta_rev_at_epoch": 522,
        "meta_bstar": 0.0020738,
        "meta_mean_motion_dot": 0.00087095,
        "meta_mean_motion_ddot": 0,
        "tle_line1": "1 66456U 25262A   25344.16668980  .00087095  00000+0  20738-2 0  9996",
        "tle_line2": "2 66456  43.0001  86.4368 0001349 279.5216 343.2865 15.40622914  5225"
      },
      "geometry": {
        "type": "Point",
        "coordinates": [
          -78.37140007735131,
          -14.927092255418641
        ]
      }
    }
  ]
}